ONEWEB-0037             
1 45440U 20020S   24104.25407544 -.00000175  00000+0 -52865-3 0  9996
2 45440  87.9024 179.1284 0002072  93.8754 266.2611 13.11417249198508
ONEWEB-0042             
1 45441U 20020T   24104.26207478  .00000380  00000+0  10351-2 0  9991
2 45441  87.9029 179.1534 0001850  98.3518 261.7820 13.11419268198474
ONEWEB-0098             
1 45442U 20020U   24104.25571361  .00000150  00000+0  38770-3 0  9997
2 45442  87.9028 179.1642 0001992 105.6828 254.4519 13.11419801198452
ONEWEB-0055             
1 45443U 20020V   24104.24354146 -.00000337  00000+0 -98641-3 0  9999
2 45443  87.9027 179.1700 0001971 105.4485 254.6861 13.11417978198423
ONEWEB-0093             
1 45444U 20020W   24104.75083134  .00000145  00000+0  37290-3 0  9990
2 45444  87.9025 179.0498 0001749 106.7534 253.3786 13.11413166198569
ONEWEB-0029             
1 45445U 20020X   24104.23621808 -.00000509  00000+0 -14730-2 0  9999
2 45445  87.9024 179.1647 0001869  95.6267 264.5074 13.11415165198462
ONEWEB-0068             
1 45446U 20020Y   24104.59255308  .00000190  00000+0  50167-3 0  9996
2 45446  87.9025 179.0800 0001812 103.1927 256.9404 13.11413590198451
ONEWEB-0046             
1 45447U 20020Z   24104.74271681  .00000396  00000+0  10802-2 0  9995
2 45447  87.9025 179.0627 0002068  91.8980 268.2384 13.11414493198495
